STARLINK-1704
1 27625C 21012F   21325.16648534  .00003447  00000-0  23089-3 0  3256
2 27625  53.0551 277.4789 0002100  62.6873  14.4453 15.06403736    11
